TIANQI-15               
1 49027U 21065B   26068.81163741  .00006722  00000+0  41179-3 0  9990
2 49027  34.9979 108.2420 0007067 250.7766 109.2180 15.09508085254244
STARLINK-3597           
1 51898U 22022AY  26068.19580093 -.00000402  00000+0 -71906-5 0  9991
2 51898  53.2196   1.3366 0001495  92.6992 267.4172 15.08844101223226
